stk.v.4.3 

BEGIN Ephemeris 
 
NumberOfEphemerisPoints		146 
ScenarioEpoch	    1 Sep 2020 10:58:53.963316679 
InterpolationMethod		Lagrange 
InterpolationOrder		5 
CentralBody				Earth 
CoordinateSystem			TEME 
CoordinateSystemEpoch	  1 Sep 2020 10:58:53.963316679 
DistanceUnit			Kilometers 
 
EphemerisTimePosVel 
 
       0.00000000   -5131.00334126   -4758.62241786       0.04017000  0.332668434 -0.348918151  7.531359086
 END Ephemeris 
